{"type": "FeatureCollection", "features": [{"type": "Feature", "properties": {"name": "Li\u00e8ge"}, "geometry": {"type": "Polygon", "coordinates": [[[5.57, 50.63], [5.58, 50.64], [5.59, 50.63], [5.58, 50.62], [5.57, 50.63]]]}}, {"type": "Feature", "properties": {"name": "Charleroi"}, "geometry": {"type": "Polygon", "coordinates": [[[4.43, 50.41], [4.44, 50.42], [4.45, 50.41], [4.44, 50.4], [4.43, 50.41]]]}}, {"type": "Feature", "properties": {"name": "Namur"}, "geometry": {"type": "Polygon", "coordinates": [[[4.86, 50.47], [4.87, 50.48], [4.88, 50.47], [4.87, 50.46], [4.86, 50.47]]]}}, {"type": "Feature", "properties": {"name": "Mons"}, "geometry": {"type": "Polygon", "coordinates": [[[3.94, 50.45], [3.95, 50.46], [3.96, 50.45], [3.95, 50.44], [3.94, 50.45]]]}}, {"type": "Feature", "properties": {"name": "Verviers"}, "geometry": {"type": "Polygon", "coordinates": [[[5.85, 50.59], [5.86, 50.6], [5.87, 50.59], [5.86, 50.58], [5.85, 50.59]]]}}]}